start=new Date('2022-02-17T00:00:00.000Z').valueOf();
sats=[{"MEAN_ANOMALY":"306.4249","CLASSIFICATION_TYPE":"U","PERIOD":"95.593","EPOCH":"2022-02-16T18:34:32.273760","REF_FRAME":"TEME","OBJECT_TYPE":"PAYLOAD","DECAY_DATE":null,"APOAPSIS":"548.430","ELEMENT_SET_NO":"999","RCS_SIZE":"LARGE","MEAN_MOTION":"15.06388068","REV_AT_EPOCH":"5318","EPHEMERIS_TYPE":"0","CENTER_NAME":"EARTH","TLE_LINE1":"1 47843U 21018BJ  22047.77398465  .00001572  00000-0  12442-3 0  9993","MEAN_MOTION_DOT":"0.00001572","PERIAPSIS":"546.071","MEAN_MOTION_DDOT":"0.0000000000000","GP_ID":"196131422","INCLINATION":"53.0544","TLE_LINE2":"2 47843  53.0544  69.2108 0001703  53.6897 306.4249 15.06388068 53184","TIME_SYSTEM":"UTC","LAUNCH_DATE":"2021-03-11","OBJECT_NAME":"STARLINK-2435","SITE":"AFETR","COUNTRY_CODE":"US","NORAD_CAT_ID":"47843","ECCENTRICITY":"0.00017030","MEAN_ELEMENT_THEORY":"SGP4","RA_OF_ASC_NODE":"69.2108","ARG_OF_PERICENTER":"53.6897","OBJECT_ID":"2021-018BJ","FILE":"3302660","BSTAR":"0.00012442000000","SEMIMAJOR_AXIS":"6925.385"},{"INCLINATION":"53.0557","TIME_SYSTEM":"UTC","LAUNCH_DATE":"2021-03-11","TLE_LINE2":"2 47844  53.0557  64.2056 0001615  66.5408 293.5750 15.06397959 53237","GP_ID":"196131173","SITE":"AFETR","COUNTRY_CODE":"US","NORAD_CAT_ID":"47844","ECCENTRICITY":"0.00016150","OBJECT_NAME":"STARLINK-2446","BSTAR":"0.00007478000000","FILE":"3302660","SEMIMAJOR_AXIS":"6925.355","RA_OF_ASC_NODE":"64.2056","MEAN_ELEMENT_THEORY":"SGP4","OBJECT_ID":"2021-018BK","ARG_OF_PERICENTER":"66.5408","PERIOD":"95.592","CLASSIFICATION_TYPE":"U","MEAN_ANOMALY":"293.5750","APOAPSIS":"548.338","DECAY_DATE":null,"ELEMENT_SET_NO":"999","EPOCH":"2022-02-16T18:32:32.321184","OBJECT_TYPE":"PAYLOAD","REF_FRAME":"TEME","EPHEMERIS_TYPE":"0","CENTER_NAME":"EARTH","MEAN_MOTION":"15.06397959","RCS_SIZE":"LARGE","REV_AT_EPOCH":"5323","PERIAPSIS":"546.101","MEAN_MOTION_DOT":"0.00000832","MEAN_MOTION_DDOT":"0.0000000000000","TLE_LINE1":"1 47844U 21018BK  22047.77259631  .00000832  00000-0  74780-4 0  9997"},{"SEMIMAJOR_AXIS":"6925.344","BSTAR":"0.00016247000000","FILE":"3301890","OBJECT_ID":"2021-018BL","ARG_OF_PERICENTER":"56.1157","RA_OF_ASC_NODE":"65.6174","MEAN_ELEMENT_THEORY":"SGP4","NORAD_CAT_ID":"47845","ECCENTRICITY":"0.00016570","SITE":"AFETR","COUNTRY_CODE":"US","OBJECT_NAME":"STARLINK-2453","LAUNCH_DATE":"2021-03-11","TIME_SYSTEM":"UTC","TLE_LINE2":"2 47845  53.0543  65.6174 0001657  56.1157 303.9989 15.06401513 53198","INCLINATION":"53.0543","GP_ID":"196093576","MEAN_MOTION_DDOT":"0.0000000000000","PERIAPSIS":"546.061","MEAN_MOTION_DOT":"0.00002139","TLE_LINE1":"1 47845U 21018BL  22047.45929013  .00002139  00000-0  16247-3 0  9996","CENTER_NAME":"EARTH","EPHEMERIS_TYPE":"0","REV_AT_EPOCH":"5319","RCS_SIZE":"LARGE","MEAN_MOTION":"15.06401513","ELEMENT_SET_NO":"999","APOAPSIS":"548.356","DECAY_DATE":null,"OBJECT_TYPE":"PAYLOAD","REF_FRAME":"TEME","EPOCH":"2022-02-16T11:01:22.667232","PERIOD":"95.592","CLASSIFICATION_TYPE":"U","MEAN_ANOMALY":"303.9989"},{"APOAPSIS":"548.247","DECAY_DATE":null,"ELEMENT_SET_NO":"999","EPOCH":"2022-02-16T10:56:04.744608","OBJECT_TYPE":"PAYLOAD","REF_FRAME":"TEME","PERIOD":"95.593","CLASSIFICATION_TYPE":"U","MEAN_ANOMALY":"297.2672","PERIAPSIS":"546.218","MEAN_MOTION_DOT":"0.00001818","MEAN_MOTION_DDOT":"0.0000000000000","TLE_LINE1":"1 47846U 21018BM  22047.45561047  .00001818  00000-0  14094-3 0  9997","EPHEMERIS_TYPE":"0","CENTER_NAME":"EARTH","MEAN_MOTION":"15.06393694","RCS_SIZE":"LARGE","REV_AT_EPOCH":"5324","INCLINATION":"53.0553","TIME_SYSTEM":"UTC","LAUNCH_DATE":"2021-03-11","TLE_LINE2":"2 47846  53.0553  65.6315 0001465  62.8466 297.2672 15.06393694 53241","GP_ID":"196094327","FILE":"3301890","BSTAR":"0.00014094000000","SEMIMAJOR_AXIS":"6925.368","RA_OF_ASC_NODE":"65.6315","MEAN_ELEMENT_THEORY":"SGP4","ARG_OF_PERICENTER":"62.8466","OBJECT_ID":"2021-018BM","COUNTRY_CODE":"US","SITE":"AFETR","NORAD_CAT_ID":"47846","ECCENTRICITY":"0.00014650","OBJECT_NAME":"STARLINK-2456"},{"GP_ID":"196131674","INCLINATION":"53.0541","TLE_LINE2":"2 47860  53.0541  93.8309 0001600  63.4394 296.6759 15.06406935 52609","LAUNCH_DATE":"2021-03-14","TIME_SYSTEM":"UTC","OBJECT_NAME":"STARLINK-2258","COUNTRY_CODE":"US","SITE":"AFETR","NORAD_CAT_ID":"47860","ECCENTRICITY":"0.00016000","MEAN_ELEMENT_THEORY":"SGP4","RA_OF_ASC_NODE":"93.8309","ARG_OF_PERICENTER":"63.4394","OBJECT_ID":"2021-021A","BSTAR":"0.00030003000000","FILE":"3302660","SEMIMAJOR_AXIS":"6925.327","MEAN_ANOMALY":"296.6759","CLASSIFICATION_TYPE":"U","PERIOD":"95.592","EPOCH":"2022-02-16T20:35:56.589504","REF_FRAME":"TEME","OBJECT_TYPE":"PAYLOAD","DECAY_DATE":null,"APOAPSIS":"548.300","ELEMENT_SET_NO":"999","MEAN_MOTION":"15.06406935","RCS_SIZE":"LARGE","REV_AT_EPOCH":"5260","EPHEMERIS_TYPE":"0","CENTER_NAME":"EARTH","TLE_LINE1":"1 47860U 21021A   22047.85829386  .00004191  00000-0  30003-3 0  9999","MEAN_MOTION_DOT":"0.00004191","PERIAPSIS":"546.084","MEAN_MOTION_DDOT":"0.0000000000000"},{"CENTER_NAME":"EARTH","EPHEMERIS_TYPE":"0","REV_AT_EPOCH":"5291","MEAN_MOTION":"15.06401613","RCS_SIZE":"LARGE","MEAN_MOTION_DDOT":"0.0000000000000","MEAN_MOTION_DOT":"0.00002992","PERIAPSIS":"546.175","TLE_LINE1":"1 47861U 21021B   22047.80992291  .00002992  00000-0  21966-3 0  9996","CLASSIFICATION_TYPE":"U","PERIOD":"95.592","MEAN_ANOMALY":"282.1873","ELEMENT_SET_NO":"999","DECAY_DATE":null,"APOAPSIS":"548.243","REF_FRAME":"TEME","OBJECT_TYPE":"PAYLOAD","EPOCH":"2022-02-16T19:26:17.339424","NORAD_CAT_ID":"47861","ECCENTRICITY":"0.00014930","COUNTRY_CODE":"US","SITE":"AFETR","OBJECT_NAME":"STARLINK-2280","SEMIMAJOR_AXIS":"6925.344","BSTAR":"0.00021966000000","FILE":"3302660","ARG_OF_PERICENTER":"77.9283","OBJECT_ID":"2021-021B","MEAN_ELEMENT_THEORY":"SGP4","RA_OF_ASC_NODE":"79.0484","TLE_LINE2":"2 47861  53.0540  79.0484 0001493  77.9283 282.1873 15.06401613 52915","LAUNCH_DATE":"2021-03-14","TIME_SYSTEM":"UTC","INCLINATION":"53.0540","GP_ID":"196131926"},{"INCLINATION":"53.0532","TIME_SYSTEM":"UTC","LAUNCH_DATE":"2021-03-14","TLE_LINE2":"2 47862  53.0532  74.1369 0001608  69.2965 290.8196 15.06396499 52979","GP_ID":"196132676","SITE":"AFETR","COUNTRY_CODE":"US","NORAD_CAT_ID":"47862","ECCENTRICITY":"0.00016080","OBJECT_NAME":"STARLINK-2291","BSTAR":"0.00045839000000","FILE":"3302660","SEMIMAJOR_AXIS":"6925.359","RA_OF_ASC_NODE":"74.1369","MEAN_ELEMENT_THEORY":"SGP4","OBJECT_ID":"2021-021C","ARG_OF_PERICENTER":"69.2965","PERIOD":"95.592","CLASSIFICATION_TYPE":"U","MEAN_ANOMALY":"290.8196","APOAPSIS":"548.338","DECAY_DATE":null,"ELEMENT_SET_NO":"999","EPOCH":"2022-02-16T18:57:46.271232","OBJECT_TYPE":"PAYLOAD","REF_FRAME":"TEME","EPHEMERIS_TYPE":"0","CENTER_NAME":"EARTH","MEAN_MOTION":"15.06396499","RCS_SIZE":"LARGE","REV_AT_EPOCH":"5297","PERIAPSIS":"546.111","MEAN_MOTION_DOT":"0.00006552","MEAN_MOTION_DDOT":"0.0000000000000","TLE_LINE1":"1 47862U 21021C   22047.79011888  .00006552  00000-0  45839-3 0  9990"},{"TLE_LINE2":"2 47863  53.0556  84.0178 0001510  61.3179 298.7962 15.06392734 52848","TIME_SYSTEM":"UTC","LAUNCH_DATE":"2021-03-14","INCLINATION":"53.0556","GP_ID":"196131424","NORAD_CAT_ID":"47863","ECCENTRICITY":"0.00015100","COUNTRY_CODE":"US","SITE":"AFETR","OBJECT_NAME":"STARLINK-2293","SEMIMAJOR_AXIS":"6925.371","BSTAR":"0.00020944000000","FILE":"3302660","OBJECT_ID":"2021-021D","ARG_OF_PERICENTER":"61.3179","MEAN_ELEMENT_THEORY":"SGP4","RA_OF_ASC_NODE":"84.0178","CLASSIFICATION_TYPE":"U","PERIOD":"95.593","MEAN_ANOMALY":"298.7962","ELEMENT_SET_NO":"999","DECAY_DATE":null,"APOAPSIS":"548.282","REF_FRAME":"TEME","OBJECT_TYPE":"PAYLOAD","EPOCH":"2022-02-16T19:33:34.548480","CENTER_NAME":"EARTH","EPHEMERIS_TYPE":"0","REV_AT_EPOCH":"5284","RCS_SIZE":"LARGE","MEAN_MOTION":"15.06392734","MEAN_MOTION_DDOT":"0.0000000000000","MEAN_MOTION_DOT":"0.00002839","PERIAPSIS":"546.190","TLE_LINE1":"1 47863U 21021D   22047.81498320  .00002839  00000-0  20944-3 0  9998"},{"OBJECT_NAME":"STARLINK-2304","ECCENTRICITY":"0.00013330","NORAD_CAT_ID":"47864","COUNTRY_CODE":"US","SITE":"AFETR","ARG_OF_PERICENTER":"58.5200","OBJECT_ID":"2021-021E","MEAN_ELEMENT_THEORY":"SGP4","RA_OF_ASC_NODE":"74.1423","SEMIMAJOR_AXIS":"6925.356","BSTAR":"-0.00013445000000","FILE":"3302660","GP_ID":"196131175","TLE_LINE2":"2 47864  53.0544  74.1423 0001333  58.5200 301.5919 15.06397718 52959","TIME_SYSTEM":"UTC","LAUNCH_DATE":"2021-03-14","INCLINATION":"53.0544","REV_AT_EPOCH":"5295","MEAN_MOTION":"15.06397718","RCS_SIZE":"LARGE","CENTER_NAME":"EARTH","EPHEMERIS_TYPE":"0","TLE_LINE1":"1 47864U 21021E   22047.78915875 -.00002283  00000-0 -13445-3 0  9997","MEAN_MOTION_DDOT":"0.0000000000000","MEAN_MOTION_DOT":"-0.00002283","PERIAPSIS":"546.297","MEAN_ANOMALY":"301.5919","CLASSIFICATION_TYPE":"U","PERIOD":"95.592","REF_FRAME":"TEME","OBJECT_TYPE":"PAYLOAD","EPOCH":"2022-02-16T18:56:23.316000","ELEMENT_SET_NO":"999","DECAY_DATE":null,"APOAPSIS":"548.144"},{"MEAN_MOTION_DOT":"-0.00000366","PERIAPSIS":"546.229","MEAN_MOTION_DDOT":"0.0000000000000","TLE_LINE1":"1 47865U 21021F   22047.78917945 -.00000366  00000-0 -56468-5 0  9992","EPHEMERIS_TYPE":"0","CENTER_NAME":"EARTH","RCS_SIZE":"LARGE","MEAN_MOTION":"15.06398196","REV_AT_EPOCH":"5294","DECAY_DATE":null,"APOAPSIS":"548.209","ELEMENT_SET_NO":"999","EPOCH":"2022-02-16T18:56:25.104480","REF_FRAME":"TEME","OBJECT_TYPE":"PAYLOAD","CLASSIFICATION_TYPE":"U","PERIOD":"95.592","MEAN_ANOMALY":"298.8100","BSTAR":"-0.00000564680000","FILE":"3302660","SEMIMAJOR_AXIS":"6925.354","MEAN_ELEMENT_THEORY":"SGP4","RA_OF_ASC_NODE":"84.1160","ARG_OF_PERICENTER":"61.3033","OBJECT_ID":"2021-021F","SITE":"AFETR","COUNTRY_CODE":"US","NORAD_CAT_ID":"47865","ECCENTRICITY":"0.00014300","OBJECT_NAME":"STARLINK-2310","INCLINATION":"53.0541","TLE_LINE2":"2 47865  53.0541  84.1160 0001430  61.3033 298.8100 15.06398196 52940","LAUNCH_DATE":"2021-03-14","TIME_SYSTEM":"UTC","GP_ID":"196132426"}];
